     2.100          NAVIGATION                              RINEX VERSION / TYPE
fic2rin                                 04/10/2014 00:17:25 PGM / RUN BY / DATE
                                                            END OF HEADER
26 14  4  9  1 59 44.0  .114351045340D-03 -.112549969344D-10  .000000000000D+00
     .600000000000D+01 -.109687500000D+02  .430696511667D-08  .130950319301D+01
    -.787898898125D-06  .214865249582D-01  .760518014431D-05  .515368842888D+04
     .266384000000D+06 -.374391674995D-06  .136840919283D+01 -.247731804848D-06
     .975237957250D+00  .245093750000D+03  .127585664626D+01 -.823248577322D-08
    -.300012496725D-09  .100000000000D+01  .178700000000D+04  .000000000000D+00
     .240000000000D+01  .000000000000D+00 -.605359673500D-08  .600000000000D+01
     .259206000000D+06  .400000000000D+01
 1 14  4  9  2  0  0.0  .778818503022D-05  .159161572810D-11  .000000000000D+00
     .550000000000D+02 -.205625000000D+02  .447411493627D-08  .391373853469D+00
    -.107660889626D-05  .288954481948D-02  .994466245174D-05  .515368607712D+04
     .266400000000D+06  .167638063431D-07 -.818499470337D+00  .484287738800D-07
     .960813798574D+00  .182812500000D+03  .321665090162D+00 -.802390565645D-08
    -.410731394325D-10  .100000000000D+01  .178700000000D+04  .000000000000D+00
     .240000000000D+01  .000000000000D+00  .651925802231D-08  .550000000000D+02
     .259206000000D+06  .400000000000D+01
 2 14  4  9  2  0  0.0  .488647259772D-03  .216004991671D-11  .000000000000D+00
     .700000000000D+02 -.237812500000D+02  .498770775805D-08  .100845394965D+01
    -.102631747723D-05  .134258173639D-01  .100880861282D-04  .515358744240D+04
     .266400000000D+06 -.113621354103D-06 -.847031447745D+00  .154599547386D-06
     .939329889832D+00  .177937500000D+03 -.244712498099D+01 -.834927635230D-08
    -.187507810453D-09  .100000000000D+01  .178700000000D+04  .000000000000D+00
     .240000000000D+01  .000000000000D+00 -.200234353542D-07  .700000000000D+02
     .259206000000D+06  .400000000000D+01
 3 14  4  9  2  0  0.0  .349338632077D-03  .488853402203D-11  .000000000000D+00
     .700000000000D+01 -.502812500000D+02  .545915596719D-08  .118360859585D+01
    -.279955565929D-05  .168472132646D-01  .595487654209D-05  .515378071404D+04
     .266400000000D+06 -.387430191040D-06 -.202147353204D+01 -.139698386192D-06
     .937595543395D+00  .258812500000D+03  .137301874530D+01 -.877215110959D-08
    -.107147320259D-09  .100000000000D+01  .178700000000D+04  .000000000000D+00
     .340000000000D+01  .000000000000D+00 -.465661287308D-08  .263000000000D+03
     .259206000000D+06  .400000000000D+01
 4 14  4  9  2  0  0.0  .652670860291D-05  .341060513165D-12  .000000000000D+00
     .800000000000D+02 -.280625000000D+02  .482091509618D-08 -.188441076957D+01
    -.142306089401D-05  .105654555373D-01  .998005270958D-05  .515372138405D+04
     .266400000000D+06  .204890966415D-06 -.830962495163D+00 -.186264514923D-07
     .938360994799D+00  .173062500000D+03  .108696150250D+01 -.800569061201D-08
     .435732435719D-10  .100000000000D+01  .178700000000D+04  .000000000000D+00
     .240000000000D+01  .000000000000D+00 -.605359673500D-08  .800000000000D+02
     .259206000000D+06  .400000000000D+01
 5 14  4  9  2  0  0.0 -.379956793040D-03  .216004991671D-11  .000000000000D+00
     .121000000000D+03  .354687500000D+02  .491484758027D-08 -.296125141420D+01
     .181980431080D-05  .357143301517D-02  .715814530849D-05  .515356518173D+04
     .266400000000D+06 -.558793544769D-08  .220058441197D+00 -.130385160446D-07
     .947829597479D+00  .235718750000D+03  .330325553488D+00 -.821498504424D-08
     .163578242262D-09  .100000000000D+01  .178700000000D+04  .000000000000D+00
     .240000000000D+01  .000000000000D+00 -.102445483208D-07  .121000000000D+03
     .259206000000D+06  .400000000000D+01
 7 14  4  9  2  0  0.0  .333206728101D-03  .420641299570D-11  .000000000000D+00
     .480000000000D+02  .337187500000D+02  .413624371972D-08 -.239129052982D+00
     .183470547199D-05  .716017233208D-02  .909343361855D-05  .515364369774D+04
     .266400000000D+06  .931322574615D-07  .234205984739D+01  .689178705215D-07
     .973733015386D+00  .210875000000D+03 -.284085440174D+01 -.799211861811D-08
     .678599694973D-10  .100000000000D+01  .178700000000D+04  .000000000000D+00
     .240000000000D+01  .000000000000D+00 -.107102096081D-07  .480000000000D+02
     .259206000000D+06  .400000000000D+01
 8 14  4  9  2  0  0.0  .127954408526D-04  .227373675443D-12  .000000000000D+00
     .113000000000D+03  .406875000000D+02  .364479467747D-08 -.792033787181D+00
     .217184424400D-05  .135919355089D-01  .909902155399D-05  .515348565292D+04
     .266400000000D+06  .309199094772D-06  .244038129291D+01  .279396772385D-07
     .996991331114D+00  .218968750000D+03 -.278246628224D+01 -.771603568957D-08
     .148220459691D-09  .100000000000D+01  .178700000000D+04  .000000000000D+00
     .240000000000D+01  .000000000000D+00 -.419095158577D-08  .113000000000D+03
     .259206000000D+06  .400000000000D+01
 9 14  4  9  2  0  0.0  .318725593388D-03  .295585778076D-11  .000000000000D+00
     .190000000000D+03  .267187500000D+02  .398123726308D-08  .846498908992D+00
     .120699405670D-05  .170771630947D-01  .969320535660D-05  .515368787766D+04
     .266400000000D+06 -.175088644028D-06  .232128673544D+01 -.221654772758D-06
     .982267275695D+00  .205468750000D+03  .178640245728D+01 -.806283584948D-08
     .314298806093D-10  .100000000000D+01  .178700000000D+04  .000000000000D+00
     .340000000000D+01  .000000000000D+00 -.605359673500D-08  .190000000000D+03
     .259206000000D+06  .400000000000D+01
10 14  4  9  2  0  0.0 -.121019780636D-03 -.136424205266D-11  .000000000000D+00
     .640000000000D+02  .342500000000D+02  .492163357722D-08 -.266749774477D+01
     .174716114998D-05  .134928483749D-01  .701844692230D-05  .515371897125D+04
     .266400000000D+06  .745058059692D-07  .237595035621D+00 -.126659870148D-06
     .942627002895D+00  .233781250000D+03  .861098954308D+00 -.806926468869D-08
     .225366530278D-09  .100000000000D+01  .178700000000D+04  .000000000000D+00
     .340000000000D+01  .000000000000D+00 -.279396772385D-08  .640000000000D+02
     .259206000000D+06  .400000000000D+01
11 14  4  9  2  0  0.0 -.479092821479D-03 -.329691829393D-11  .000000000000D+00
     .320000000000D+02 -.413437500000D+02  .626383234233D-08 -.493316384036D-01
    -.199303030968D-05  .148475354072D-01  .911019742489D-05  .515370371819D+04
     .266400000000D+06 -.175088644028D-06 -.113891526942D+01  .147148966789D-06
     .890147413481D+00  .165281250000D+03  .127402459153D+01 -.914288083769D-08
    -.107504477993D-09  .100000000000D+01  .178700000000D+04  .000000000000D+00
     .240000000000D+01  .000000000000D+00 -.116415321827D-07  .320000000000D+02
     .259206000000D+06  .400000000000D+01
12 14  4  9  2  0  0.0  .197405461222D-03  .238742359215D-11  .000000000000D+00
     .540000000000D+02  .258437500000D+02  .424481967092D-08 -.637243248836D+00
     .143051147461D-05  .505498377606D-02  .552646815777D-05  .515364483070D+04
     .266400000000D+06  .838190317154D-07 -.287923446863D+01  .558793544769D-07
     .987377508945D+00  .288625000000D+03  .385121582980D+00 -.801461955536D-08
     .247153152064D-09  .100000000000D+01  .178700000000D+04  .000000000000D+00
     .240000000000D+01  .000000000000D+00 -.121071934700D-07  .540000000000D+02
     .259206000000D+06  .400000000000D+01
13 14  4  9  2  0  0.0  .116904266179D-04 -.397903932026D-11  .000000000000D+00
     .820000000000D+02  .259375000000D+01  .408731311014D-08  .211074006617D+01
     .176951289177D-06  .536160683259D-02  .735372304916D-05  .515360747337D+04
     .266400000000D+06  .558793544769D-07  .137698194544D+01  .596046447754D-07
     .977840153504D+00  .245593750000D+03  .222068606794D+01 -.780853954273D-08
    -.279297348141D-09  .100000000000D+01  .178700000000D+04  .000000000000D+00
     .340000000000D+01  .000000000000D+00 -.111758708954D-07  .820000000000D+02
     .259206000000D+06  .400000000000D+01
14 14  4  9  2  0  0.0  .183310359716D-03 -.329691829393D-11  .000000000000D+00
     .250000000000D+02 -.781250000000D+00  .419124601079D-08  .244573646692D+01
     .745058059692D-08  .733712303918D-02  .716373324394D-05  .515364307785D+04
     .266400000000D+06  .521540641785D-07  .134544941919D+01 -.949949026108D-07
     .970428589195D+00  .245468750000D+03 -.199935961470D+01 -.785747015231D-08
    -.135005623526D-09  .100000000000D+01  .178700000000D+04  .000000000000D+00
     .240000000000D+01  .000000000000D+00 -.884756445885D-08  .250000000000D+02
     .259206000000D+06  .400000000000D+01
15 14  4  9  2  0  0.0 -.172840896994D-03 -.216004991671D-11  .000000000000D+00
     .770000000000D+02 -.656250000000D+01  .516592946741D-08  .184254916539D+01
    -.316649675369D-06  .623958185315D-02  .638701021671D-05  .515366951942D+04
     .266400000000D+06 -.540167093277D-07  .123498942115D+01  .130385160446D-07
     .937065114169D+00  .244593750000D+03  .273716279462D+00 -.843749431265D-08
    -.275725770799D-09  .100000000000D+01  .178700000000D+04  .000000000000D+00
     .240000000000D+01  .000000000000D+00 -.102445483208D-07  .770000000000D+02
     .259206000000D+06  .400000000000D+01
16 14  4  9  2  0  0.0 -.224079471081D-03  .170530256582D-11  .000000000000D+00
     .860000000000D+02  .148125000000D+02  .414445834761D-08 -.280896766352D+01
     .769272446632D-06  .770786812063D-02  .576488673687D-05  .515356705666D+04
     .266400000000D+06 -.117346644402D-06 -.286071060639D+01 -.949949026108D-07
     .987985333852D+00  .285687500000D+03  .174368696390D+00 -.785568436364D-08
     .205722854897D-09  .100000000000D+01  .178700000000D+04  .000000000000D+00
     .340000000000D+01  .000000000000D+00 -.977888703346D-08  .860000000000D+02
     .259206000000D+06  .400000000000D+01
